STARLINK-36573          
1 67539U 26014H   26043.85505578  .00139961  00000+0  71853-3 0  9996
2 67539  97.2853 287.5570 0001369 104.6216 255.5204 15.80853862  4664
STARLINK-36585          
1 67540U 26014J   26043.81175179  .00206517  00000+0  13485-2 0  9992
2 67540  97.2851 287.4601 0001438  91.1453 268.9977 15.75253752  4658
STARLINK-36579          
1 67541U 26014K   26043.91670139 -.00013738  00000+0 -91390-4 0  9996
2 67541  97.2882 287.5918 0001551  89.2090 189.6380 15.75187174  4703
STARLINK-35934          
1 67542U 26014L   26043.85142364  .00145877  00000+0  74850-3 0  9993
2 67542  97.2854 287.5621 0001297  47.0819 313.0558 15.80849649  4654
STARLINK-36581          
1 67543U 26014M   26043.85022702  .00154789  00000+0  79277-3 0  9997
2 67543  97.2855 287.5630 0001660 107.3150 252.8300 15.80865908  4660
STARLINK-36565          
1 67544U 26014N   26043.84921465 -.00491462  00000+0 -27664-2 0  9997
2 67544  97.2853 287.5649 0000908  94.5130 265.6242 15.80385790  4661
STARLINK-36583          
1 67545U 26014P   26043.80787236  .00133848  00000+0  88288-3 0  9999
2 67545  97.2851 287.4666 0001719  95.6839 264.4622 15.75225342  4655
STARLINK-36580          
1 67546U 26014Q   26043.91670139 -.00007754  00000+0 -51168-4 0  9991
2 67546  97.2857 287.6247 0001470 109.5391 249.2994 15.75186883  4706
STARLINK-36584          
1 67547U 26014R   26043.84576499  .00288427  00000+0  14503-2 0  9994
2 67547  97.2871 287.5621 0000806 109.7025 250.4330 15.80921251  4661
STARLINK-36586          
1 67548U 26014S   26043.84440161  .00187323  00000+0  95537-3 0  9991
2 67548  97.2852 287.5722 0001559 101.4777 258.6666 15.80872626  4665
STARLINK-36564          
1 67549U 26014T   26043.92504833  .00108577  00000+0  71920-3 0  9992
2 67549  97.2852 287.6147 0001697  92.7242 267.4217 15.75202370  4612
STARLINK-36563          
1 67550U 26014U   26043.91670139 -.00076888  00000+0 -51867-3 0  9995
2 67550  97.2854 287.6155 0001278  91.1579 245.6835 15.75216252  4704
