CCSDS_OMM_VERS = 2.0
CREATION_DATE  = 
ORIGINATOR     = 

OBJECT_NAME    = STARLINK-36573
OBJECT_ID      = 2026-014H
CENTER_NAME    = EARTH
REF_FRAME      = TEME
TIME_SYSTEM    = UTC
MEAN_ELEMENT_THEORY = SGP/SGP4

EPOCH          = 2026-02-12T20:31:16.819392
MEAN_MOTION    = 15.80853862
ECCENTRICITY   = .00013692
INCLINATION    = 97.2853
RA_OF_ASC_NODE = 287.5570
ARG_OF_PERICENTER = 104.6216
MEAN_ANOMALY   = 255.5204

EPHEMERIS_TYPE = 0
CLASSIFICATION_TYPE = U
NORAD_CAT_ID   = 67539
ELEMENT_SET_NO = 999
REV_AT_EPOCH   = 466
BSTAR          = .71852841E-3
MEAN_MOTION_DOT = .139961E-2
MEAN_MOTION_DDOT = 0

CCSDS_OMM_VERS = 2.0
CREATION_DATE  = 
ORIGINATOR     = 

OBJECT_NAME    = STARLINK-36585
OBJECT_ID      = 2026-014J
CENTER_NAME    = EARTH
REF_FRAME      = TEME
TIME_SYSTEM    = UTC
MEAN_ELEMENT_THEORY = SGP/SGP4

EPOCH          = 2026-02-12T19:28:55.354656
MEAN_MOTION    = 15.75253752
ECCENTRICITY   = .00014381
INCLINATION    = 97.2851
RA_OF_ASC_NODE = 287.4601
ARG_OF_PERICENTER = 91.1453
MEAN_ANOMALY   = 268.9977

EPHEMERIS_TYPE = 0
CLASSIFICATION_TYPE = U
NORAD_CAT_ID   = 67540
ELEMENT_SET_NO = 999
REV_AT_EPOCH   = 465
BSTAR          = .13485102E-2
MEAN_MOTION_DOT = .206517E-2
MEAN_MOTION_DDOT = 0

CCSDS_OMM_VERS = 2.0
CREATION_DATE  = 
ORIGINATOR     = 

OBJECT_NAME    = STARLINK-36579
OBJECT_ID      = 2026-014K
CENTER_NAME    = EARTH
REF_FRAME      = TEME
TIME_SYSTEM    = UTC
MEAN_ELEMENT_THEORY = SGP/SGP4

EPOCH          = 2026-02-12T22:00:03.000096
MEAN_MOTION    = 15.75187174
ECCENTRICITY   = .00015514
INCLINATION    = 97.2882
RA_OF_ASC_NODE = 287.5918
ARG_OF_PERICENTER = 89.2090
MEAN_ANOMALY   = 189.6380

EPHEMERIS_TYPE = 0
CLASSIFICATION_TYPE = U
NORAD_CAT_ID   = 67541
ELEMENT_SET_NO = 999
REV_AT_EPOCH   = 470
BSTAR          = -.9139007E-4
MEAN_MOTION_DOT = -.13738E-3
MEAN_MOTION_DDOT = 0

CCSDS_OMM_VERS = 2.0
CREATION_DATE  = 
ORIGINATOR     = 

OBJECT_NAME    = STARLINK-35934
OBJECT_ID      = 2026-014L
CENTER_NAME    = EARTH
REF_FRAME      = TEME
TIME_SYSTEM    = UTC
MEAN_ELEMENT_THEORY = SGP/SGP4

EPOCH          = 2026-02-12T20:26:03.002496
MEAN_MOTION    = 15.80849649
ECCENTRICITY   = .00012975
INCLINATION    = 97.2854
RA_OF_ASC_NODE = 287.5621
ARG_OF_PERICENTER = 47.0819
MEAN_ANOMALY   = 313.0558

EPHEMERIS_TYPE = 0
CLASSIFICATION_TYPE = U
NORAD_CAT_ID   = 67542
ELEMENT_SET_NO = 999
REV_AT_EPOCH   = 465
BSTAR          = .74850264E-3
MEAN_MOTION_DOT = .145877E-2
MEAN_MOTION_DDOT = 0

CCSDS_OMM_VERS = 2.0
CREATION_DATE  = 
ORIGINATOR     = 

OBJECT_NAME    = STARLINK-36581
OBJECT_ID      = 2026-014M
CENTER_NAME    = EARTH
REF_FRAME      = TEME
TIME_SYSTEM    = UTC
MEAN_ELEMENT_THEORY = SGP/SGP4

EPOCH          = 2026-02-12T20:24:19.614528
MEAN_MOTION    = 15.80865908
ECCENTRICITY   = .00016607
INCLINATION    = 97.2855
RA_OF_ASC_NODE = 287.5630
ARG_OF_PERICENTER = 107.3150
MEAN_ANOMALY   = 252.8300

EPHEMERIS_TYPE = 0
CLASSIFICATION_TYPE = U
NORAD_CAT_ID   = 67543
ELEMENT_SET_NO = 999
REV_AT_EPOCH   = 466
BSTAR          = .79276976E-3
MEAN_MOTION_DOT = .154789E-2
MEAN_MOTION_DDOT = 0

CCSDS_OMM_VERS = 2.0
CREATION_DATE  = 
ORIGINATOR     = 

OBJECT_NAME    = STARLINK-36565
OBJECT_ID      = 2026-014N
CENTER_NAME    = EARTH
REF_FRAME      = TEME
TIME_SYSTEM    = UTC
MEAN_ELEMENT_THEORY = SGP/SGP4

EPOCH          = 2026-02-12T20:22:52.145760
MEAN_MOTION    = 15.80385790
ECCENTRICITY   = .00009088
INCLINATION    = 97.2853
RA_OF_ASC_NODE = 287.5649
ARG_OF_PERICENTER = 94.5130
MEAN_ANOMALY   = 265.6242

EPHEMERIS_TYPE = 0
CLASSIFICATION_TYPE = U
NORAD_CAT_ID   = 67544
ELEMENT_SET_NO = 999
REV_AT_EPOCH   = 466
BSTAR          = -.27663682E-2
MEAN_MOTION_DOT = -.491462E-2
MEAN_MOTION_DDOT = 0

CCSDS_OMM_VERS = 2.0
CREATION_DATE  = 
ORIGINATOR     = 

OBJECT_NAME    = STARLINK-36583
OBJECT_ID      = 2026-014P
CENTER_NAME    = EARTH
REF_FRAME      = TEME
TIME_SYSTEM    = UTC
MEAN_ELEMENT_THEORY = SGP/SGP4

EPOCH          = 2026-02-12T19:23:20.171904
MEAN_MOTION    = 15.75225342
ECCENTRICITY   = .00017199
INCLINATION    = 97.2851
RA_OF_ASC_NODE = 287.4666
ARG_OF_PERICENTER = 95.6839
MEAN_ANOMALY   = 264.4622

EPHEMERIS_TYPE = 0
CLASSIFICATION_TYPE = U
NORAD_CAT_ID   = 67545
ELEMENT_SET_NO = 999
REV_AT_EPOCH   = 465
BSTAR          = .88288486E-3
MEAN_MOTION_DOT = .133848E-2
MEAN_MOTION_DDOT = 0

CCSDS_OMM_VERS = 2.0
CREATION_DATE  = 
ORIGINATOR     = 

OBJECT_NAME    = STARLINK-36580
OBJECT_ID      = 2026-014Q
CENTER_NAME    = EARTH
REF_FRAME      = TEME
TIME_SYSTEM    = UTC
MEAN_ELEMENT_THEORY = SGP/SGP4

EPOCH          = 2026-02-12T22:00:03.000096
MEAN_MOTION    = 15.75186883
ECCENTRICITY   = .000147
INCLINATION    = 97.2857
RA_OF_ASC_NODE = 287.6247
ARG_OF_PERICENTER = 109.5391
MEAN_ANOMALY   = 249.2994

EPHEMERIS_TYPE = 0
CLASSIFICATION_TYPE = U
NORAD_CAT_ID   = 67546
ELEMENT_SET_NO = 999
REV_AT_EPOCH   = 470
BSTAR          = -.51167863E-4
MEAN_MOTION_DOT = -.7754E-4
MEAN_MOTION_DDOT = 0

CCSDS_OMM_VERS = 2.0
CREATION_DATE  = 
ORIGINATOR     = 

OBJECT_NAME    = STARLINK-36584
OBJECT_ID      = 2026-014R
CENTER_NAME    = EARTH
REF_FRAME      = TEME
TIME_SYSTEM    = UTC
MEAN_ELEMENT_THEORY = SGP/SGP4

EPOCH          = 2026-02-12T20:17:54.095136
MEAN_MOTION    = 15.80921251
ECCENTRICITY   = .00008068
INCLINATION    = 97.2871
RA_OF_ASC_NODE = 287.5621
ARG_OF_PERICENTER = 109.7025
MEAN_ANOMALY   = 250.4330

EPHEMERIS_TYPE = 0
CLASSIFICATION_TYPE = U
NORAD_CAT_ID   = 67547
ELEMENT_SET_NO = 999
REV_AT_EPOCH   = 466
BSTAR          = .14502823E-2
MEAN_MOTION_DOT = .288427E-2
MEAN_MOTION_DDOT = 0

CCSDS_OMM_VERS = 2.0
CREATION_DATE  = 
ORIGINATOR     = 

OBJECT_NAME    = STARLINK-36586
OBJECT_ID      = 2026-014S
CENTER_NAME    = EARTH
REF_FRAME      = TEME
TIME_SYSTEM    = UTC
MEAN_ELEMENT_THEORY = SGP/SGP4

EPOCH          = 2026-02-12T20:15:56.299104
MEAN_MOTION    = 15.80872626
ECCENTRICITY   = .00015597
INCLINATION    = 97.2852
RA_OF_ASC_NODE = 287.5722
ARG_OF_PERICENTER = 101.4777
MEAN_ANOMALY   = 258.6666

EPHEMERIS_TYPE = 0
CLASSIFICATION_TYPE = U
NORAD_CAT_ID   = 67548
ELEMENT_SET_NO = 999
REV_AT_EPOCH   = 466
BSTAR          = .95536581E-3
MEAN_MOTION_DOT = .187323E-2
MEAN_MOTION_DDOT = 0

CCSDS_OMM_VERS = 2.0
CREATION_DATE  = 
ORIGINATOR     = 

OBJECT_NAME    = STARLINK-36564
OBJECT_ID      = 2026-014T
CENTER_NAME    = EARTH
REF_FRAME      = TEME
TIME_SYSTEM    = UTC
MEAN_ELEMENT_THEORY = SGP/SGP4

EPOCH          = 2026-02-12T22:12:04.175712
MEAN_MOTION    = 15.75202370
ECCENTRICITY   = .00016972
INCLINATION    = 97.2852
RA_OF_ASC_NODE = 287.6147
ARG_OF_PERICENTER = 92.7242
MEAN_ANOMALY   = 267.4217

EPHEMERIS_TYPE = 0
CLASSIFICATION_TYPE = U
NORAD_CAT_ID   = 67549
ELEMENT_SET_NO = 999
REV_AT_EPOCH   = 461
BSTAR          = .7191988E-3
MEAN_MOTION_DOT = .108577E-2
MEAN_MOTION_DDOT = 0

CCSDS_OMM_VERS = 2.0
CREATION_DATE  = 
ORIGINATOR     = 

OBJECT_NAME    = STARLINK-36563
OBJECT_ID      = 2026-014U
CENTER_NAME    = EARTH
REF_FRAME      = TEME
TIME_SYSTEM    = UTC
MEAN_ELEMENT_THEORY = SGP/SGP4

EPOCH          = 2026-02-12T22:00:03.000096
MEAN_MOTION    = 15.75216252
ECCENTRICITY   = .00012787
INCLINATION    = 97.2854
RA_OF_ASC_NODE = 287.6155
ARG_OF_PERICENTER = 91.1579
MEAN_ANOMALY   = 245.6835

EPHEMERIS_TYPE = 0
CLASSIFICATION_TYPE = U
NORAD_CAT_ID   = 67550
ELEMENT_SET_NO = 999
REV_AT_EPOCH   = 470
BSTAR          = -.51867478E-3
MEAN_MOTION_DOT = -.76888E-3
MEAN_MOTION_DDOT = 0

